#cP2022 11  3  0  0  0.00000000      96 ORBIT IGb14 HLM  IGS
## 2234 345600.00000000   900.00000000 59886 0.0000000000000
+   31   G01G02G03G04G05G06G07G08G09G10G11G12G13G14G15G16G17
+        G18G19G20G21G22G23G24G25G26G27G29G30G31G32  0  0  0
+          0  0  0  0  0  0  0  0  0  0  0  0  0  0  0  0  0
+          0  0  0  0  0  0  0  0  0  0  0  0  0  0  0  0  0
+          0  0  0  0  0  0  0  0  0  0  0  0  0  0  0  0  0
++         3  2  2  3  2  2  2  2  2  2  3  2  2  3  2  2  2
++         3  2  2  2  2  3  2  2  2  2  2  2  2  2  0  0  0
++         0  0  0  0  0  0  0  0  0  0  0  0  0  0  0  0  0
++         0  0  0  0  0  0  0  0  0  0  0  0  0  0  0  0  0
++         0  0  0  0  0  0  0  0  0  0  0  0  0  0  0  0  0
%c G  cc GPS ccc cccc cccc cccc cccc ccccc ccccc ccccc ccccc
%c cc cc ccc ccc cccc cccc cccc cccc ccccc ccccc ccccc ccccc
%f  1.2500000  1.025000000  0.00000000000  0.000000000000000
%f  0.0000000  0.000000000  0.00000000000  0.000000000000000
%i    0    0    0    0      0      0      0      0         0
%i    0    0    0    0      0      0      0      0         0
/* RAPID ORBIT COMBINATION FROM WEIGHTED AVERAGE OF:        
/* cod emr esa gfz jpl ngs sio usn whu                      
/* REFERENCED TO IGS TIME (IGST) AND TO WEIGHTED MEAN POLE: 
/* PCV:IGS14_2233 OL/AL:FES2004  NONE     Y  ORB:CMB CLK:CMB
*  2022 11  3 21 45  0.00000000
PG01 -18570.684405 -13845.307744 -13609.874350    257.210372  9  8  8 122       
PG02  19854.234449  12214.511010  13225.285924   -639.498198  8  5  4 119       
PG03 -12098.165739 -22461.122365   7462.692073   -370.416579  6  5  8 116       
PG04  -9628.241718 -11824.431974  21744.983360    -92.632383  8 10  7 125       
PG05   5642.176076  25460.050294   4510.530320   -102.932050  8  6  6 109       
PG06 -17929.264119   7903.648476  18030.134026    509.150495  7  9  6 106       
PG07 -26074.329252  -6316.546553    188.181972    291.619947  9  5  5 109       
PG08   -489.671815 -18896.257672 -18546.422757    -92.081106  7  8  3 131       
PG09 -18033.834604   -505.513179  19427.653652   -273.929077  6  5  7 133       
PG10  13483.084372  -6375.069816 -21804.143661    -10.368832  7  6  5 108       
PG11  -6155.910543  13929.619994  21763.104238    -34.422543  7 10  9 106       
PG12  10195.127127  23539.407207   6823.212540   -300.027350  9  7  6 125       
PG13  -8731.565828  20236.569599 -14859.692157    418.133275  7  6  8 124       
PG14 -14885.046619   4050.127832 -21612.499047    -87.619362 10  7  8 129       
PG15   3402.037976  19025.708122 -18544.482403    -15.422894  7  6  7 129       
PG16   1262.356531 -24576.601123   9085.210681   -526.827346  7  3  8 104       
PG17 -21735.692099  11347.988596  -9853.580392    674.756930  7  3  7 102       
PG18  26068.055263   4970.168110  -2321.670970     -8.907756  8  5  8 107       
PG19 -20098.595527  17145.922989   -198.981914    232.585224  5  4 10  91       
PG20  -2725.424429  20972.929901  16218.784685    473.018471  6  8  6 108       
PG21 -11745.943922 -14722.002999 -18413.714120    156.781618  8  8  5 152       
PG22  17925.306584 -19263.745997   3236.691814    357.870380  3  7  6  70       
PG23  16414.892998   5519.613051 -20183.429305     -1.149889 10  7  7 118       
PG24  15552.123141  14561.790328 -16446.279583     73.788839  5  3  6 148       
PG25  15859.887057  14975.824829  15046.361683    389.053393  8  6  6 119       
PG26   7180.357146 -18177.199247  17743.079082    234.679250  6  7  6  82       
PG27  10260.888140 -21860.032287 -10803.506656    185.675538  7  6  6 105       
PG29  16733.101354   3219.459419  20353.444049   -564.607208  7  7  4  84       
PG30 -24083.375176   2490.254667 -11117.091796   -536.984425  7  6 11 135       
PG31  17378.828390  -8764.905226  18119.615981   -199.024242  6  8  5 130       
PG32  20724.712391 -14374.054134  -7845.964428   -284.489545  2  6  8 105       
*  2022 11  3 22  0  0.00000000
PG01 -16968.685221 -13606.450943 -15786.821392    257.205103  8  9  8 129       
PG02  18299.020366  12207.946285  15416.091969   -639.496623  8  5  4 118       
PG03 -12138.442278 -23194.141334   4695.953295   -370.419014  6  5  8 104       
PG04  -7912.743943 -13599.200976  21387.467094    -92.626531  9 10  7 128       
PG05   5155.021631  24902.371204   7270.213377   -102.932617  8  6  6 116       
PG06 -19806.110467   7408.978398  16180.943901    509.159367  7  9  6 108       
PG07 -25894.469455  -6528.657560   2988.270590    291.615680  8  5  5  92       
PG08    939.993199 -20350.305605 -16881.369363    -92.083193  6  8  4 133       
PG09 -16631.918376  -2333.688611  20506.366228   -273.924072  7  5  7 128       
PG10  14318.552244  -3988.245205 -21865.906675    -10.370231  7  6  4 111       
PG11  -8536.254207  13287.147760  21354.139924    -34.427440  8 10  8 110       
PG12  10143.230389  24226.019563   4050.630751   -300.031406  9  6  6 109       
PG13 -10026.148913  21111.142160 -12615.112288    418.139411  7  6  9 129       
PG14 -15584.771248   1683.389447 -21442.672793    -87.615066 11  7  8 130       
PG15   2148.667795  20560.640805 -16963.887462    -15.420259  7  7  8 139       
PG16   1793.860411 -23434.001350  11628.345239   -526.827170  5  3  7  91       
PG17 -20933.968268  10275.106172 -12336.029303    674.759944  7  3  7 108       
PG18  26121.801827   5196.307858    547.547386     -8.920167  8  5  8 110       
PG19 -20134.763897  16864.681086  -3091.452388    232.589580  5  4 10  93       
PG20  -3791.964277  19334.530260  17930.012725    473.015548  6  8  6 109       
PG21  -9472.768995 -14558.924678 -19695.956239    156.781585  9  8  5 149       
PG22  18225.812650 -19186.265354    378.471650    357.876608  4  8  6  72       
PG23  17102.596827   7640.715053 -18890.676356     -1.149807 10  7  7 125       
PG24  13633.029311  14511.821986 -18104.173158     73.774872  6  4  6 150       
PG25  16214.063710  16584.502098  12893.047600    389.056823  8  5  6 119       
PG26   8161.032678 -16259.655339  19147.833894    234.680304  6  8  6  92       
PG27  11137.193755 -22514.500990  -8193.500854    185.668506  6  5  6  96       
PG29  15074.105052   4932.785274  21276.479645   -564.609796  7  7  5  81       
PG30 -25140.832351   1987.123829  -8642.703964   -536.984152  7  7 11 139       
PG31  19289.774474  -8193.127252  16428.333763   -199.025710  6  8  5 132       
PG32  20218.425208 -13396.232293 -10439.906892   -284.500637  4  6  8 105       
*  2022 11  3 22 15  0.00000000
PG01 -15129.901207 -13425.970159 -17701.522171    257.199867  8  9  8 131       
PG02  16521.283403  12269.614999  17350.441206   -639.494801  8  6  4 124       
PG03 -12099.348128 -23628.795535   1848.703324   -370.421435  6  4  8 113       
PG04  -6330.802929 -15414.669660  20661.576764    -92.620583  9  9  8 132       
PG05   4510.167411  24091.684566   9903.176478   -102.934426  8  6  6 119       
PG06 -21485.360148   7053.202818  14055.383279    509.168254  6  9  7 109       
PG07 -25420.479343  -6703.199824   5738.722165    291.611773  8  6  4  80       
PG08   2172.230174 -21712.121728 -14922.438406    -92.084834  6  7  4 132       
PG09 -15263.547080  -4313.518691  21230.066914   -273.919076  7  5  7 128       
PG10  15275.024656  -1666.675628 -21546.271664    -10.370767  7  6  5 117       
PG11 -10881.578249  12783.505223  20577.719792    -34.432271  9  9  7 107       
PG12  10030.854959  24610.842856   1208.414661   -300.035437  9  5  6  89       
PG13 -11083.873411  21867.291773 -10153.396416    418.145649  8  7  9 119       
PG14 -16389.127702   -606.259271 -20903.936759    -87.610835 11  8  9 130       
PG15   1063.168652  21990.624434 -15097.284262    -15.417240  7  7  8 141       
PG16   2466.897414 -22051.791445  13963.522014   -526.827226  4  3  8 106       
PG17 -20011.672008   8952.489860 -14601.808358    674.763051  8  3  7 114       
PG18  25867.989697   5369.195629   3407.424145     -8.932565  9  5  8 121       
PG19 -19958.234176  16352.347092  -5930.047514    232.594315  5  4 10 113       
PG20  -5031.691622  17600.750811  19335.447073    473.012838  7  8  5  88       
PG21  -7057.474172 -14507.120675 -20627.558344    156.780719  9  8  5 150       
PG22  18312.308040 -18882.600616  -2486.290650    357.883011  5  8  6  84       
PG23  17836.870846   9570.233939 -17274.425421     -1.149754 10  7  6 120       
PG24  11545.799897  14547.198760 -19462.521643     73.760894  6  4  7 151       
PG25  16552.170073  17932.516024  10517.216529    389.060261  7  4  6 124       
PG26   9290.924135 -14265.910980  20217.560830    234.681456  5  9  6 108       
PG27  11793.322419 -22972.425535  -5440.272339    185.661454  6  4  6 107       
PG29  13454.779607   6797.591959  21832.484799   -564.612605  8  7  5  89       
PG30 -25937.809351   1580.548511  -6021.196825   -536.983884  7  7 11 144       
PG31  21020.266396  -7755.829486  14456.500832   -199.026485  7  8  6 138       
PG32  19589.654697 -12166.529858 -12850.993092   -284.511781  4  6  8 100       
EOF
